BANDWAGON-2 OBJECT J    
1 62385U 24247J   26101.50885663  .00033643  00000+0  66560-3 0  9998
2 62385  45.0003 267.7665 0009539 240.4661 119.5278 15.46521877 73117
TOMORROW-S4             
1 62386U 24247K   26100.89429493  .00007035  00000+0  26101-3 0  9998
2 62386  44.9820 301.1726 0003060 355.3792   4.7062 15.28278044 72657
BANDWAGON-2 OBJECT L    
1 62387U 24247L   26101.49221588  .00038200  00000+0  72081-3 0  9997
2 62387  44.9909 265.6457 0009317 249.4543 110.5348 15.47836346 73132
GITAI-SC1               
1 62388U 24247M   26100.99474086  .00006238  00000+0  29070-3 0  9991
2 62388  45.0031 314.7751 0000930 244.0006 116.0778 15.20719780 72502
ICEYE-X47               
1 62389U 24247N   26101.52512627  .00006649  00000+0  38706-3 0  9998
2 62389  44.9978 352.8766 0001609 244.8820 115.1890 15.12749076 72086
LASARSAT                
1 62391U 24247Q   26101.47959700  .00024733  00000+0  56428-3 0  9997
2 62391  44.9752 275.9009 0006125 275.1439  84.8750 15.42494434 73003
TOMORROW-S3             
1 62392U 24247R   26101.25232544  .00004844  00000+0  18332-3 0  9997
2 62392  45.0024 299.0833 0002655 280.4931  79.5653 15.28238008 72717
BANDWAGON-2 OBJECT S    
1 62393U 24247S   26101.44613810  .00113701  00000+0  10722-2 0  9995
2 62393  44.9674 251.1363 0012752 299.9481  60.0150 15.65915721 73294
CROCUBE                 
1 62394U 24247T   26101.48252080  .00027548  00000+0  59886-3 0  9996
2 62394  44.9725 274.1464 0005681 274.0403  85.9837 15.43880614 73027
BANDWAGON-2 OBJECT U    
1 62395U 24247U   26100.75828021  .00033104  00000+0  71350-3 0  9995
2 62395  44.9953 274.7371 0008519 228.1676 131.8486 15.44029981 72965
BANDWAGON-2 OBJECT V    
1 62396U 24247V   26100.75708383  .00039772  00000+0  76136-3 0  9998
2 62396  44.9936 270.4090 0009397 242.4333 117.5604 15.47403943 73019
BANDWAGON-2 OBJECT Y    
1 62399U 24247Y   26101.50607647  .00029908  00000+0  63384-3 0  9997
2 62399  44.9978 270.2467 0008608 232.1239 127.8873 15.44572948 73087
XCUBE-1                 
1 62400U 24247Z   26101.55778802  .00007442  00000+0  27280-3 0  9991
2 62400  44.9960 297.0290 0004446 192.8231 167.2540 15.28599897 72769
CTC-0                   
1 62401U 24247AA  26101.51551156  .00016676  00000+0  45531-3 0  9997
2 62401  44.9731 280.2631 0007796 239.3789 120.6329 15.37244095 72951
DJIBOUTI-1B             
1 62402U 24247AB  26100.75698108  .00047085  00000+0  83078-3 0  9998
2 62402  44.9726 266.3141 0008351 248.5962 111.4038 15.49675939 73055
BANDWAGON-2 OBJECT AC   
1 62403U 24247AC  26101.21512171  .00014670  00000+0  41085-3 0  9992
2 62403  45.0044 287.2678 0005290 233.6412 126.3987 15.36560660 72857
BANDWAGON-2 OBJECT AD   
1 62404U 24247AD  26100.81615481  .00042510  00000+0  83015-3 0  9999
2 62404  44.9953 270.9011 0009442 240.3511 119.6439 15.46800667 73014
BANDWAGON-2 OBJECT AE   
1 62405U 24247AE  26101.45150255  .00046389  00000+0  71409-3 0  9996
2 62405  44.9766 258.1881 0009779 261.0750  98.9036 15.53481674 72627
STRIX-2                 
1 62406U 24248A   26101.54147731  .00005298  00000+0  34612-3 0  9992
2 62406  97.6243  57.6332 0015170 196.0670 164.0079 15.08158461 71543
STARLINK-11444 [DTC]    
1 62409U 24249A   26101.03139498  .00212825  00000+0  16092-2 0  9998
2 62409  43.0008 333.0260 0003025 273.9350  86.1172 15.70997044 74567
STARLINK-11493 [DTC]    
1 62410U 24249B   26101.35462845  .00258526  00000+0  19523-2 0  9990
2 62410  43.0014 331.1511 0000819 280.8842  79.1934 15.70887737 74616
STARLINK-11453 [DTC]    
1 62411U 24249C   26101.51350787  .00187253  00000+0  14214-2 0  9990
2 62411  43.0019 329.7435 0003273 252.8414 107.2096 15.70983930 74648
STARLINK-11462 [DTC]    
1 62412U 24249D   26101.50002315  .00086009  00000+0  41347-3 0  9996
2 62412  42.9981 329.1224 0008697 267.8902 295.2541 15.81622508  6133
STARLINK-11441 [DTC]    
1 62413U 24249E   26101.11608720  .00178825  00000+0  13659-2 0  9998
2 62413  42.9999 331.9130 0001846 277.4983  82.5675 15.70865034 74585
STARLINK-11445 [DTC]    
1 62414U 24249F   26100.93595426  .00093799  00000+0  72421-3 0  9995
2 62414  43.0001 333.1492 0002597 255.7324 104.3255 15.70905667 74550
STARLINK-11355 [DTC]    
1 62415U 24249G   26100.99422472  .00200535  00000+0  15259-2 0  9995
2 62415  43.0017 332.7140 0002831 259.3759 100.6790 15.70884804 74569
STARLINK-11446 [DTC]    
1 62416U 24249H   26101.35979689  .00154181  00000+0  11797-2 0  9992
2 62416  43.0056 330.2960 0003446 270.9497  89.0976 15.70901134 74626
STARLINK-11428 [DTC]    
1 62417U 24249J   26101.52945958  .00227554  00000+0  17322-2 0  9999
2 62417  42.9994 329.8784 0001672 282.1880  77.8800 15.70792036 74646
STARLINK-11447 [DTC]    
1 62418U 24249K   26101.04719196  .00195912  00000+0  14921-2 0  9994
2 62418  43.0028 332.2521 0003186 277.8898  82.1608 15.70876527 74571
STARLINK-11434 [DTC]    
1 62420U 24249M   26101.53475405  .00171729  00000+0  13122-2 0  9995
2 62420  42.9984 329.9108 0001550 289.9792  70.0909 15.70878897 74647
STARLINK-11461 [DTC]    
1 62421U 24249N   26101.52413522  .00189260  00000+0  14442-2 0  9992
2 62421  42.9986 329.8252 0001564 273.2846  86.7842 15.70854658 74649
STARLINK-32692          
1 62422U 24249P   26101.39741216  .00013645  00000+0  50424-3 0  9996
2 62422  43.0032 137.3201 0000470 276.1789  83.9009 15.27592530 72724
STARLINK-32680          
1 62423U 24249Q   26101.46105041  .00016499  00000+0  60755-3 0  9993
2 62423  43.0036 129.1693 0001852 273.9485  86.1155 15.27589421 72829
STARLINK-32638          
1 62424U 24249R   26101.47645176  .00018566  00000+0  68245-3 0  9992
2 62424  43.0011 140.5402 0001503 271.2632  88.8047 15.27582579 72697
STARLINK-32283          
1 62425U 24249S   26101.44097588  .00013869  00000+0  51266-3 0  9994
2 62425  43.0005 125.5505 0001401 265.3897  94.6795 15.27573419 72869
STARLINK-32676          
1 62426U 24249T   26101.48546705  .00010457  00000+0  38890-3 0  9997
2 62426  43.0012 129.3481 0001509 269.8104  90.2574 15.27587959 72829
STARLINK-32659          
1 62427U 24249U   26101.47133154  .00032330  00000+0  11783-2 0  9992
2 62427  43.0022 129.2451 0001938 268.4134  91.6495 15.27605685 72825
STARLINK-32614          
1 62428U 24249V   26101.52432929  .00008927  00000+0  33347-3 0  9997
2 62428  43.0039 136.5648 0001736 278.5607  81.5048 15.27585339 72742
STARLINK-32418          
1 62429U 24249W   26101.37898215  .00016002  00000+0  58975-3 0  9992
2 62429  43.0007 129.4063 0000974 290.0073  70.0673 15.27580684 72812
RESURS-P 5              
1 62430U 24250A   26101.55262885  .00002961  00000+0  94968-4 0  9996
2 62430  97.2773  28.0242 0000794  97.9700 262.1633 15.33119178 72340
STARLINK-32702          
1 62432U 24251A   26101.50997942  .00014190  00000+0  49064-3 0  9996
2 62432  53.1574 179.9991 0001288  76.8426 283.2718 15.30177557 73014
STARLINK-32712          
1 62433U 24251B   26101.52329073  .00012794  00000+0  44334-3 0  9996
2 62433  53.1570 182.9150 0001012  55.9093 304.2003 15.30199409 72970
STARLINK-32674          
1 62434U 24251C   26101.48530257  .00009884  00000+0  34538-3 0  9991
2 62434  53.1594 182.6822 0001660  93.7584 266.3607 15.30201293 72977
STARLINK-32711          
1 62435U 24251D   26101.52011899  .00008966  00000+0  31482-3 0  9998
2 62435  53.1559 182.8955 0000661  54.8523 305.2539 15.30164729 72978
STARLINK-32697          
1 62436U 24251E   26101.50746080  .00010865  00000+0  37856-3 0  9996
2 62436  53.1581 182.8211 0001155  82.5394 277.5738 15.30186137 72971
STARLINK-32693          
1 62437U 24251F   26101.40045097  .00011552  00000+0  40157-3 0  9998
2 62437  53.1609 180.6631 0001101  98.1059 262.0067 15.30199326 72997
STARLINK-32721          
1 62438U 24251G   26101.50007388  .00019403  00000+0  66559-3 0  9998
2 62438  53.1585 182.7720 0001216  83.6221 276.4918 15.30196107 72910
STARLINK-32709          
1 62439U 24251H   26101.40954774  .00024585  00000+0  83953-3 0  9992
2 62439  53.1611 183.6332 0001159  93.5880 266.5253 15.30196688 72957
STARLINK-32689          
1 62440U 24251J   26101.48108106  .00014204  00000+0  49078-3 0  9999
2 62440  53.1598 182.6541 0001941  83.0756 277.0465 15.30199249 72979
STARLINK-32724          
1 62441U 24251K   26101.43686904  .00010828  00000+0  37723-3 0  9994
2 62441  53.1586 183.0910 0001103  79.6632 280.4493 15.30195195 72803
STARLINK-32291          
1 62442U 24251L   26101.51064912  .00018125  00000+0  62310-3 0  9991
2 62442  53.1577 182.8399 0001187  85.1537 274.9599 15.30173040 72664
STARLINK-32736          
1 62443U 24251M   26101.51800824 -.00000594  00000+0 -79388-5 0  9990
2 62443  53.1589 182.8893 0001136  90.9645 269.1486 15.30182800 72817
STARLINK-32737          
1 62444U 24251N   26101.49638221  .00012293  00000+0  42648-3 0  9992
2 62444  53.1582 180.6183 0001771  84.8192 275.3011 15.30201299 73002
STARLINK-32683          
1 62445U 24251P   26101.40533691  .00008470  00000+0  29760-3 0  9991
2 62445  53.1594 183.6004 0001554 110.3399 249.7768 15.30218419 72953
STARLINK-32726          
1 62446U 24251Q   26101.50111554  .00005961  00000+0  21345-3 0  9996
2 62446  53.1590 182.7739 0001455  88.1605 271.9563 15.30162735 72664
STARLINK-32730          
1 62447U 24251R   26101.50002315  .01663138  00000+0  33327-1 0  9999
2 62447  53.1600 182.3999 0001099  83.0294 105.2847 15.43359932  6003
STARLINK-32719          
1 62448U 24251S   26101.49066801  .00015551  00000+0  53624-3 0  9991
2 62448  53.1596 183.2766 0000550  60.3437 299.7618 15.30190151 72794
STARLINK-32723          
1 62449U 24251T   26101.43792491  .00014191  00000+0  49024-3 0  9995
2 62449  53.1582 183.0951 0000960  58.5978 301.5117 15.30207252 72807
STARLINK-32722          
1 62450U 24251U   26101.49796404  .00012373  00000+0  42919-3 0  9997
2 62450  53.1587 182.7552 0001126  87.6285 272.4845 15.30200295 72608
